[{"OBJECT_NAME":"STARLINK-3583","OBJECT_ID":"2022-022AA","EPOCH":"2026-02-09T12:30:37.168992","MEAN_MOTION":15.08844928,"ECCENTRICITY":0.00010181,"INCLINATION":53.2172,"RA_OF_ASC_NODE":135.5759,"ARG_OF_PERICENTER":65.2876,"MEAN_ANOMALY":294.8222,"EPHEMERIS_TYPE":0,"CLASSIFICATION_TYPE":"U","NORAD_CAT_ID":51876,"ELEMENT_SET_NO":999,"REV_AT_EPOCH":21886,"BSTAR":0.00013995151,"MEAN_MOTION_DOT":1.941e-5,"MEAN_MOTION_DDOT":0},{"OBJECT_NAME":"STARLINK-3556","OBJECT_ID":"2022-022AB","EPOCH":"2026-02-09T12:05:26.280960","MEAN_MOTION":15.08843527,"ECCENTRICITY":0.00011858,"INCLINATION":53.2166,"RA_OF_ASC_NODE":125.6505,"ARG_OF_PERICENTER":92.4586,"MEAN_ANOMALY":267.6542,"EPHEMERIS_TYPE":0,"CLASSIFICATION_TYPE":"U","NORAD_CAT_ID":51877,"ELEMENT_SET_NO":999,"REV_AT_EPOCH":21899,"BSTAR":5.8269929e-5,"MEAN_MOTION_DOT":6.4e-6,"MEAN_MOTION_DDOT":0},{"OBJECT_NAME":"STARLINK-3575","OBJECT_ID":"2022-022AC","EPOCH":"2026-02-09T13:55:25.495680","MEAN_MOTION":15.08831843,"ECCENTRICITY":0.0001015,"INCLINATION":53.2171,"RA_OF_ASC_NODE":135.3122,"ARG_OF_PERICENTER":78.5669,"MEAN_ANOMALY":281.5437,"EPHEMERIS_TYPE":0,"CLASSIFICATION_TYPE":"U","NORAD_CAT_ID":51878,"ELEMENT_SET_NO":999,"REV_AT_EPOCH":21887,"BSTAR":-2.9581e-5,"MEAN_MOTION_DOT":-7.58e-6,"MEAN_MOTION_DDOT":0},{"OBJECT_NAME":"STARLINK-3572","OBJECT_ID":"2022-022AD","EPOCH":"2026-02-09T13:30:13.822272","MEAN_MOTION":15.08845561,"ECCENTRICITY":0.0001221,"INCLINATION":53.2175,"RA_OF_ASC_NODE":125.3886,"ARG_OF_PERICENTER":87.8617,"MEAN_ANOMALY":272.2515,"EPHEMERIS_TYPE":0,"CLASSIFICATION_TYPE":"U","NORAD_CAT_ID":51879,"ELEMENT_SET_NO":999,"REV_AT_EPOCH":21900,"BSTAR":0.00010494,"MEAN_MOTION_DOT":1.383e-5,"MEAN_MOTION_DDOT":0},{"OBJECT_NAME":"STARLINK-3566","OBJECT_ID":"2022-022AE","EPOCH":"2026-02-09T14:00:39.069792","MEAN_MOTION":15.08835869,"ECCENTRICITY":0.0001209,"INCLINATION":53.2178,"RA_OF_ASC_NODE":135.0123,"ARG_OF_PERICENTER":77.8901,"MEAN_ANOMALY":282.2226,"EPHEMERIS_TYPE":0,"CLASSIFICATION_TYPE":"U","NORAD_CAT_ID":51880,"ELEMENT_SET_NO":999,"REV_AT_EPOCH":21887,"BSTAR":-6.1288e-5,"MEAN_MOTION_DOT":-1.263e-5,"MEAN_MOTION_DDOT":0},{"OBJECT_NAME":"STARLINK-3504","OBJECT_ID":"2022-022AF","EPOCH":"2026-02-09T13:19:37.863840","MEAN_MOTION":15.08835974,"ECCENTRICITY":0.0001434,"INCLINATION":53.2162,"RA_OF_ASC_NODE":125.4222,"ARG_OF_PERICENTER":83.8854,"MEAN_ANOMALY":276.2302,"EPHEMERIS_TYPE":0,"CLASSIFICATION_TYPE":"U","NORAD_CAT_ID":51881,"ELEMENT_SET_NO":999,"REV_AT_EPOCH":21905,"BSTAR":0.00015511,"MEAN_MOTION_DOT":2.181e-5,"MEAN_MOTION_DDOT":0},{"OBJECT_NAME":"STARLINK-3570","OBJECT_ID":"2022-022AG","EPOCH":"2026-02-09T12:01:31.357632","MEAN_MOTION":15.08844746,"ECCENTRICITY":0.00014409,"INCLINATION":53.2177,"RA_OF_ASC_NODE":125.673,"ARG_OF_PERICENTER":97.5007,"MEAN_ANOMALY":262.6148,"EPHEMERIS_TYPE":0,"CLASSIFICATION_TYPE":"U","NORAD_CAT_ID":51882,"ELEMENT_SET_NO":999,"REV_AT_EPOCH":21904,"BSTAR":2.4293012e-5,"MEAN_MOTION_DOT":9.9e-7,"MEAN_MOTION_DDOT":0},{"OBJECT_NAME":"STARLINK-3576","OBJECT_ID":"2022-022AH","EPOCH":"2026-02-09T16:46:19.766496","MEAN_MOTION":15.08844916,"ECCENTRICITY":0.00013093,"INCLINATION":53.2168,"RA_OF_ASC_NODE":124.9581,"ARG_OF_PERICENTER":90.1186,"MEAN_ANOMALY":269.9956,"EPHEMERIS_TYPE":0,"CLASSIFICATION_TYPE":"U","NORAD_CAT_ID":51883,"ELEMENT_SET_NO":999,"REV_AT_EPOCH":21901,"BSTAR":4.1956526e-5,"MEAN_MOTION_DOT":3.8e-6,"MEAN_MOTION_DDOT":0},{"OBJECT_NAME":"STARLINK-3577","OBJECT_ID":"2022-022AJ","EPOCH":"2026-02-09T13:24:55.840896","MEAN_MOTION":15.08850007,"ECCENTRICITY":0.0001382,"INCLINATION":53.217,"RA_OF_ASC_NODE":125.4051,"ARG_OF_PERICENTER":92.0493,"MEAN_ANOMALY":268.0657,"EPHEMERIS_TYPE":0,"CLASSIFICATION_TYPE":"U","NORAD_CAT_ID":51884,"ELEMENT_SET_NO":999,"REV_AT_EPOCH":21908,"BSTAR":0.00020103,"MEAN_MOTION_DOT":2.914e-5,"MEAN_MOTION_DDOT":0},{"OBJECT_NAME":"STARLINK-3584","OBJECT_ID":"2022-022AK","EPOCH":"2026-02-09T13:03:43.801344","MEAN_MOTION":15.08842629,"ECCENTRICITY":0.0001367,"INCLINATION":53.2161,"RA_OF_ASC_NODE":125.4732,"ARG_OF_PERICENTER":101.1939,"MEAN_ANOMALY":258.9207,"EPHEMERIS_TYPE":0,"CLASSIFICATION_TYPE":"U","NORAD_CAT_ID":51885,"ELEMENT_SET_NO":999,"REV_AT_EPOCH":21899,"BSTAR":6.5923e-5,"MEAN_MOTION_DOT":7.61e-6,"MEAN_MOTION_DDOT":0},{"OBJECT_NAME":"STARLINK-3565","OBJECT_ID":"2022-022AL","EPOCH":"2026-02-09T13:14:20.666112","MEAN_MOTION":15.08837931,"ECCENTRICITY":0.0001895,"INCLINATION":53.2183,"RA_OF_ASC_NODE":125.4424,"ARG_OF_PERICENTER":61.0603,"MEAN_ANOMALY":299.0579,"EPHEMERIS_TYPE":0,"CLASSIFICATION_TYPE":"U","NORAD_CAT_ID":51886,"ELEMENT_SET_NO":999,"REV_AT_EPOCH":21900,"BSTAR":0.00012219,"MEAN_MOTION_DOT":1.657e-5,"MEAN_MOTION_DDOT":0},{"OBJECT_NAME":"STARLINK-3551","OBJECT_ID":"2022-022AM","EPOCH":"2026-02-10T00:06:08.140032","MEAN_MOTION":15.08837792,"ECCENTRICITY":0.000133,"INCLINATION":53.2167,"RA_OF_ASC_NODE":123.4089,"ARG_OF_PERICENTER":80.1433,"MEAN_ANOMALY":279.971,"EPHEMERIS_TYPE":0,"CLASSIFICATION_TYPE":"U","NORAD_CAT_ID":51887,"ELEMENT_SET_NO":999,"REV_AT_EPOCH":21906,"BSTAR":7.6142e-5,"MEAN_MOTION_DOT":9.24e-6,"MEAN_MOTION_DDOT":0},{"OBJECT_NAME":"STARLINK-3536","OBJECT_ID":"2022-022AN","EPOCH":"2026-02-09T13:09:01.717056","MEAN_MOTION":15.08841835,"ECCENTRICITY":0.0001369,"INCLINATION":53.2175,"RA_OF_ASC_NODE":125.458,"ARG_OF_PERICENTER":88.3261,"MEAN_ANOMALY":271.7888,"EPHEMERIS_TYPE":0,"CLASSIFICATION_TYPE":"U","NORAD_CAT_ID":51888,"ELEMENT_SET_NO":999,"REV_AT_EPOCH":21900,"BSTAR":2.7479e-7,"MEAN_MOTION_DOT":-2.84e-6,"MEAN_MOTION_DDOT":0},{"OBJECT_NAME":"STARLINK-3547","OBJECT_ID":"2022-022AP","EPOCH":"2026-02-09T12:42:32.097024","MEAN_MOTION":15.08838308,"ECCENTRICITY":0.0001399,"INCLINATION":53.2178,"RA_OF_ASC_NODE":125.5401,"ARG_OF_PERICENTER":101.5313,"MEAN_ANOMALY":258.5837,"EPHEMERIS_TYPE":0,"CLASSIFICATION_TYPE":"U","NORAD_CAT_ID":51889,"ELEMENT_SET_NO":999,"REV_AT_EPOCH":21899,"BSTAR":7.3961e-6,"MEAN_MOTION_DOT":-1.7e-6,"MEAN_MOTION_DDOT":0},{"OBJECT_NAME":"STARLINK-3549","OBJECT_ID":"2022-022AR","EPOCH":"2026-02-10T04:31:05.524896","MEAN_MOTION":15.088468,"ECCENTRICITY":0.0001575,"INCLINATION":53.2182,"RA_OF_ASC_NODE":122.5888,"ARG_OF_PERICENTER":114.3894,"MEAN_ANOMALY":245.7263,"EPHEMERIS_TYPE":0,"CLASSIFICATION_TYPE":"U","NORAD_CAT_ID":51891,"ELEMENT_SET_NO":999,"REV_AT_EPOCH":21914,"BSTAR":9.5078e-6,"MEAN_MOTION_DOT":-1.37e-6,"MEAN_MOTION_DDOT":0},{"OBJECT_NAME":"STARLINK-3587","OBJECT_ID":"2022-022AS","EPOCH":"2026-02-09T11:12:27.277632","MEAN_MOTION":15.08840239,"ECCENTRICITY":0.00012891,"INCLINATION":53.2171,"RA_OF_ASC_NODE":125.8178,"ARG_OF_PERICENTER":95.9305,"MEAN_ANOMALY":264.1834,"EPHEMERIS_TYPE":0,"CLASSIFICATION_TYPE":"U","NORAD_CAT_ID":51892,"ELEMENT_SET_NO":999,"REV_AT_EPOCH":21898,"BSTAR":-9.120614e-6,"MEAN_MOTION_DOT":-4.33e-6,"MEAN_MOTION_DDOT":0}]
