STARLINK-3583           
1 51876U 22022AA  26040.52126353  .00001941  00000+0  13995-3 0  9998
2 51876  53.2172 135.5759 0001018  65.2876 294.8222 15.08844928218861
STARLINK-3556           
1 51877U 22022AB  26040.50377640  .00000640  00000+0  58270-4 0  9995
2 51877  53.2166 125.6505 0001185  92.4586 267.6542 15.08843527218990
STARLINK-3575           
1 51878U 22022AC  26040.58015620 -.00000758  00000+0 -29581-4 0  9996
2 51878  53.2171 135.3122 0001015  78.5669 281.5437 15.08831843218872
STARLINK-3572           
1 51879U 22022AD  26040.56265998  .00001383  00000+0  10494-3 0  9995
2 51879  53.2175 125.3886 0001221  87.8617 272.2515 15.08845561219000
STARLINK-3566           
1 51880U 22022AE  26040.58378553 -.00001263  00000+0 -61288-4 0  9998
2 51880  53.2178 135.0123 0001209  77.8901 282.2226 15.08835869218872
STARLINK-3504           
1 51881U 22022AF  26040.55529935  .00002181  00000+0  15511-3 0  9993
2 51881  53.2162 125.4222 0001434  83.8854 276.2302 15.08835974219059
STARLINK-3570           
1 51882U 22022AG  26040.50105738  .00000099  00000+0  24293-4 0  9994
2 51882  53.2177 125.6730 0001440  97.5007 262.6148 15.08844746219044
STARLINK-3576           
1 51883U 22022AH  26040.69883989  .00000380  00000+0  41957-4 0  9995
2 51883  53.2168 124.9581 0001309  90.1186 269.9956 15.08844916219015
STARLINK-3577           
1 51884U 22022AJ  26040.55897964  .00002914  00000+0  20103-3 0  9993
2 51884  53.2170 125.4051 0001382  92.0493 268.0657 15.08850007219083
STARLINK-3584           
1 51885U 22022AK  26040.54425696  .00000761  00000+0  65923-4 0  9990
2 51885  53.2161 125.4732 0001367 101.1939 258.9207 15.08842629218999
STARLINK-3565           
1 51886U 22022AL  26040.55162808  .00001657  00000+0  12219-3 0  9999
2 51886  53.2183 125.4424 0001895  61.0603 299.0579 15.08837931219001
STARLINK-3551           
1 51887U 22022AM  26041.00426088  .00000924  00000+0  76142-4 0  9996
2 51887  53.2167 123.4089 0001330  80.1433 279.9710 15.08837792219061
STARLINK-3536           
1 51888U 22022AN  26040.54793654 -.00000284  00000+0  27479-6 0  9992
2 51888  53.2175 125.4580 0001369  88.3261 271.7888 15.08841835219003
STARLINK-3547           
1 51889U 22022AP  26040.52953816 -.00000170  00000+0  73961-5 0  9999
2 51889  53.2178 125.5401 0001399 101.5313 258.5837 15.08838308218994
STARLINK-3549           
1 51891U 22022AR  26041.18825839 -.00000137  00000+0  95078-5 0  9994
2 51891  53.2182 122.5888 0001575 114.3894 245.7263 15.08846800219145
STARLINK-3587           
1 51892U 22022AS  26040.46698238 -.00000433  00000+0 -91206-5 0  9995
2 51892  53.2171 125.8178 0001289  95.9305 264.1834 15.08840239218985
